{
"type": "FeatureCollection",
"name": "Gesamtregion",
"crs": { "type": "name", "properties": { "name": "urn:ogc:def:crs:OGC:1.3:CRS84" } },
"features": [
{ "type": "Feature", "properties": { }, "geometry": { "type": "Polygon", "coordinates": [ [ [ 262.0, 60.0 ], [ 262.0, 65.0 ], [ 270.0, 67.0 ], [ 265.0, 70.0 ], [ 266.0, 74.0 ], [ 277.0, 73.5 ], [ 277.0, 71.0 ], [ 288.0, 70.0 ], [ 290.0, 63.5 ], [ 295.0, 61.5 ], [ 295.5, 58.0 ], [ 292.0, 57.0 ], [ 285.0, 60.5 ], [ 285.0, 52.0 ], [ 280.0, 50.5 ], [ 275.0, 53.0 ], [ 270.0, 55.0 ], [ 265.0, 57.5 ], [ 262.0, 60.0 ] ] ] } }
]
}
