{
"type": "FeatureCollection",
"name": "Gesamtregion_polygon",
"crs": { "type": "name", "properties": { "name": "urn:ogc:def:crs:OGC:1.3:CRS84" } },
"features": [
{ "type": "Feature", "properties": { "region": "Gesamtregion" }, "geometry": { "type": "Polygon", "coordinates": [ [ [ -98.0, 60.0 ], [ -95.0, 57.5 ], [ -90.0, 55.0 ], [ -85.0, 53.0 ], [ -80.0, 50.5 ], [ -75.0, 52.0 ], [ -75.0, 60.5 ], [ -68.0, 57.0 ], [ -64.5, 58.0 ], [ -65.0, 61.5 ], [ -70.0, 63.5 ], [ -72.0, 70.0 ], [ -83.0, 71.0 ], [ -83.0, 73.5 ], [ -94.0, 74.0 ], [ -95.0, 70.0 ], [ -90.0, 67.0 ], [ -98.0, 65.0 ], [ -98.0, 60.0 ] ] ] } }
]
}
